{
  "type": "FeatureCollection",
  "schema": "ti.annotation-footprint/1",
  "name": "Treasure Island annotation footprint",
  "features": [
    {
      "type": "Feature",
      "id": "treasure-island-frozen-osm-boundary",
      "geometry": {
        "type": "MultiPolygon",
        "coordinates": [
          [
            [
              [
                -122.3790725,
                37.82681
              ],
              [
                -122.3790609,
                37.8267152
              ],
              [
                -122.3775658,
                37.8243186
              ],
              [
                -122.3782378,
                37.8254818
              ],
              [
                -122.3776446,
                37.8245631
              ],
              [
                -122.37742921,
                37.8242743
              ],
              [
                -122.3770946,
                37.8237365
              ],
              [
                -122.3768649,
                37.8233556
              ],
              [
                -122.3766875,
                37.8229528
              ],
              [
                -122.3765913,
                37.8227914
              ],
              [
                -122.3764701,
                37.822656
              ],
              [
                -122.3763474,
                37.8225292
              ],
              [
                -122.3758292,
                37.8218305
              ],
              [
                -122.3753246,
                37.8210913
              ],
              [
                -122.3743065,
                37.8196119
              ],
              [
                -122.373629,
                37.8186108
              ],
              [
                -122.3734432,
                37.8183019
              ],
              [
                -122.3724218,
                37.8167775
              ],
              [
                -122.3715323,
                37.8154615
              ],
              [
                -122.3713831,
                37.8151916
              ],
              [
                -122.3708487,
                37.8153838
              ],
              [
                -122.370907,
                37.8155092
              ],
              [
                -122.3709773,
                37.8156578
              ],
              [
                -122.3710228,
                37.8157366
              ],
              [
                -122.3711259,
                37.8159123
              ],
              [
                -122.3711293,
                37.8159751
              ],
              [
                -122.37108401,
                37.8160174
              ],
              [
                -122.3706352,
                37.8162036
              ],
              [
                -122.3701055,
                37.8164235
              ],
              [
                -122.3698981,
                37.8165093
              ],
              [
                -122.3698598,
                37.816508
              ],
              [
                -122.3697911,
                37.8165359
              ],
              [
                -122.3696317,
                37.8166018
              ],
              [
                -122.3691624,
                37.816806
              ],
              [
                -122.3689291,
                37.8169042
              ],
              [
                -122.36863121,
                37.8170095
              ],
              [
                -122.36862299,
                37.8169974
              ],
              [
                -122.3685366,
                37.817034
              ],
              [
                -122.3685498,
                37.8170534
              ],
              [
                -122.3675133,
                37.8175003
              ],
              [
                -122.3671565,
                37.8176397
              ],
              [
                -122.3664974,
                37.8179266
              ],
              [
                -122.3664872,
                37.8179117
              ],
              [
                -122.3664792,
                37.8179151
              ],
              [
                -122.3664742,
                37.817908
              ],
              [
                -122.3664072,
                37.8179367
              ],
              [
                -122.3664108,
                37.8179419
              ],
              [
                -122.36640029,
                37.8179464
              ],
              [
                -122.3663822,
                37.8179567
              ],
              [
                -122.3662762,
                37.8180042
              ],
              [
                -122.3662546,
                37.8180441
              ],
              [
                -122.3661965,
                37.8180665
              ],
              [
                -122.36613539,
                37.8180673
              ],
              [
                -122.3651361,
                37.8184977
              ],
              [
                -122.365075,
                37.8185422
              ],
              [
                -122.364433,
                37.8187737
              ],
              [
                -122.3643413,
                37.8188396
              ],
              [
                -122.3642881,
                37.8189191
              ],
              [
                -122.36413359,
                37.8193635
              ],
              [
                -122.3641508,
                37.8193881
              ],
              [
                -122.3641198,
                37.8194138
              ],
              [
                -122.36398569,
                37.8197746
              ],
              [
                -122.3638846,
                37.8200211
              ],
              [
                -122.3637707,
                37.8203117
              ],
              [
                -122.3636998,
                37.8205128
              ],
              [
                -122.3637228,
                37.8205637
              ],
              [
                -122.3636036,
                37.820875
              ],
              [
                -122.3635546,
                37.8209152
              ],
              [
                -122.3633208,
                37.8214683
              ],
              [
                -122.363042,
                37.8221713
              ],
              [
                -122.3629519,
                37.8223742
              ],
              [
                -122.3629075,
                37.8225465
              ],
              [
                -122.3629107,
                37.8226214
              ],
              [
                -122.3629653,
                37.8227255
              ],
              [
                -122.36337561,
                37.8233419
              ],
              [
                -122.3637295,
                37.8238756
              ],
              [
                -122.3638676,
                37.8240824
              ],
              [
                -122.3640155,
                37.824325
              ],
              [
                -122.36411811,
                37.8244997
              ],
              [
                -122.3642276,
                37.8246613
              ],
              [
                -122.36443,
                37.824964
              ],
              [
                -122.3651463,
                37.8259883
              ],
              [
                -122.365271,
                37.826167
              ],
              [
                -122.3653638,
                37.8263205
              ],
              [
                -122.3655469,
                37.8265805
              ],
              [
                -122.3658709,
                37.8270686
              ],
              [
                -122.3660198,
                37.8272944
              ],
              [
                -122.3661617,
                37.8274995
              ],
              [
                -122.366301,
                37.8276946
              ],
              [
                -122.3663767,
                37.8277911
              ],
              [
                -122.3665108,
                37.8280014
              ],
              [
                -122.3667088,
                37.8282937
              ],
              [
                -122.36695669,
                37.8286669
              ],
              [
                -122.3675074,
                37.8294455
              ],
              [
                -122.3676162,
                37.8296421
              ],
              [
                -122.3677559,
                37.8299136
              ],
              [
                -122.3678784,
                37.8300615
              ],
              [
                -122.3680339,
                37.8302575
              ],
              [
                -122.3683076,
                37.8306561
              ],
              [
                -122.3685905,
                37.8310812
              ],
              [
                -122.3686369,
                37.8311325
              ],
              [
                -122.3687054,
                37.8311557
              ],
              [
                -122.3694106,
                37.8313358
              ],
              [
                -122.37169359,
                37.8318777
              ],
              [
                -122.3727475,
                37.8321354
              ],
              [
                -122.3729909,
                37.8321805
              ],
              [
                -122.3732268,
                37.8322089
              ],
              [
                -122.37328449,
                37.8322909
              ],
              [
                -122.3733564,
                37.8323315
              ],
              [
                -122.3735042,
                37.8322441
              ],
              [
                -122.3738566,
                37.8321111
              ],
              [
                -122.3743351,
                37.8319925
              ],
              [
                -122.3746987,
                37.8317532
              ],
              [
                -122.3750495,
                37.8315669
              ],
              [
                -122.3752286,
                37.8314895
              ],
              [
                -122.3752358,
                37.8315006
              ],
              [
                -122.3752445,
                37.8314971
              ],
              [
                -122.3752848,
                37.8314806
              ],
              [
                -122.3752944,
                37.8314771
              ],
              [
                -122.37528629,
                37.8314646
              ],
              [
                -122.3753532,
                37.8314575
              ],
              [
                -122.3756792,
                37.8313051
              ],
              [
                -122.3766073,
                37.8309199
              ],
              [
                -122.3770537,
                37.8307237
              ],
              [
                -122.3775108,
                37.8305141
              ],
              [
                -122.3776616,
                37.8304043
              ],
              [
                -122.3778414,
                37.8300152
              ],
              [
                -122.3780995,
                37.8293607
              ],
              [
                -122.378271,
                37.8289773
              ],
              [
                -122.378481,
                37.8283868
              ],
              [
                -122.3788912,
                37.8273487
              ],
              [
                -122.3790565,
                37.8269011
              ]
            ]
          ]
        ]
      },
      "properties": {
        "name": "Treasure Island",
        "role": "annotation_footprint",
        "source": "generated/world/manifest.json#playable_boundary",
        "source_key": "w26767313",
        "derivation": "Existing generated +X-east/-Z-north boundary converted with tools/lib/coordinates.mjs inverseProjectEastNorth"
      }
    }
  ]
}
